{
  "norad_id": 62746,
  "name": "STARLINK-32780",
  "history": [
    {
      "epoch": "2026-03-28T21:59:54.391200",
      "apogee_km": 483.5270529636646,
      "perigee_km": 482.4465631863686,
      "latitude_deg": 0.5595534812100623,
      "longitude_deg": -177.40623199986294,
      "semi_major_axis_km": 6861.123808075016,
      "eccentricity": 7.874e-05,
      "inclination_deg": 43.0021,
      "raan_deg": 46.1735,
      "arg_perigee_deg": 265.1687,
      "mean_anomaly_deg": 94.9075,
      "mean_motion_rev_day": 15.27600802
    },
    {
      "epoch": "2026-03-29T04:16:31.593216",
      "apogee_km": 483.1260826715243,
      "perigee_km": 482.77753935992587,
      "latitude_deg": 36.86813909311198,
      "longitude_deg": -152.2982297600247,
      "semi_major_axis_km": 6861.088811015725,
      "eccentricity": 2.54e-05,
      "inclination_deg": 43.0034,
      "raan_deg": 44.6952,
      "arg_perigee_deg": 248.7595,
      "mean_anomaly_deg": 111.323,
      "mean_motion_rev_day": 15.2761249
    }
  ]
}